$$SOE
2459580.500000000, A.D. 2022-Jan-01 00:00:00.0000, 5.613007459420823E+07, 4.877747605195727E+08, -6.415723790951014E+07,
2459587.500000000, A.D. 2022-Jan-08 00:00:00.0000, 4.543568498450576E+07, 4.882217938347313E+08, -6.331117274237503E+07,
2459594.500000000, A.D. 2022-Jan-15 00:00:00.0000, 3.472300093963587E+07, 4.884726962955346E+08, -6.243967312411876E+07,
2459601.500000000, A.D. 2022-Jan-22 00:00:00.0000, 2.399626747218524E+07, 4.885264925369958E+08, -6.154297786526118E+07,
2459608.500000000, A.D. 2022-Jan-29 00:00:00.0000, 1.325977596274596E+07, 4.883823246342334E+08, -6.062134353262793E+07,
2459615.500000000, A.D. 2022-Feb-05 00:00:00.0000, 2.517857941738950E+06, 4.880394539850244E+08, -5.967504427411725E+07,
2459622.500000000, A.D. 2022-Feb-12 00:00:00.0000, -8.225119111772630E+06, 4.874972619555416E+08, -5.870437189500874E+07,
2459629.500000000, A.D. 2022-Feb-19 00:00:00.0000, -1.896475526919518E+07, 4.867552516491646E+08, -5.770963587079996E+07,
2459636.500000000, A.D. 2022-Feb-26 00:00:00.0000, -2.969662225015997E+07, 4.858130500643183E+08, -5.669116323498793E+07,
2459643.500000000, A.D. 2022-Mar-05 00:00:00.0000, -4.041626794924656E+07, 4.846704100136267E+08, -5.564929840643694E+07,
2459650.500000000, A.D. 2022-Mar-12 00:00:00.0000, -5.111922115895475E+07, 4.833272117289882E+08, -5.458440298196398E+07,
2459657.500000000, A.D. 2022-Mar-19 00:00:00.0000, -6.180099640622069E+07, 4.817834641719179E+08, -5.349685549851678E+07,
2459664.500000000, A.D. 2022-Mar-26 00:00:00.0000, -7.245709886771759E+07, 4.800393060354018E+08, -5.238705116780020E+07,
2459671.500000000, A.D. 2022-Apr-02 00:00:00.0000, -8.308302928315201E+07, 4.780950063744720E+08, -5.125540159458928E+07,
2459678.500000000, A.D. 2022-Apr-09 00:00:00.0000, -9.367428858102854E+07, 4.759509648643079E+08, -5.010233450386426E+07,
2459685.500000000, A.D. 2022-Apr-16 00:00:00.0000, -1.042263818459940E+08, 4.736077123351764E+08, -4.892829345685792E+07,
2459692.500000000, A.D. 2022-Apr-23 00:00:00.0000, -1.147348228821667E+08, 4.710659126654819E+08, -4.773373735213700E+07,
2459699.500000000, A.D. 2022-Apr-30 00:00:00.0000, -1.251951412264669E+08, 4.683263637845811E+08, -4.651913972463909E+07,
2459706.500000000, A.D. 2022-May-07 00:00:00.0000, -1.356028885338990E+08, 4.653899958075333E+08, -4.528498828534809E+07,
2459713.500000000, A.D. 2022-May-14 00:00:00.0000, -1.459536429317253E+08, 4.622578693394071E+08, -4.403178458204912E+07,
2459720.500000000, A.D. 2022-May-21 00:00:00.0000, -1.562430133581311E+08, 4.589311747096794E+08, -4.276004353462179E+07,
2459727.500000000, A.D. 2022-May-28 00:00:00.0000, -1.664666443480366E+08, 4.554112311791201E+08, -4.147029288071926E+07,
2459734.500000000, A.D. 2022-Jun-04 00:00:00.0000, -1.766202209734697E+08, 4.516994858082343E+08, -4.016307258423264E+07,
2459741.500000000, A.D. 2022-Jun-11 00:00:00.0000, -1.866994737787317E+08, 4.477975119927757E+08, -3.883893422123365E+07,
2459748.500000000, A.D. 2022-Jun-18 00:00:00.0000, -1.967001836568256E+08, 4.437070076842214E+08, -3.749844034758948E+07,
2459755.500000000, A.D. 2022-Jun-25 00:00:00.0000, -2.066181866231972E+08, 4.394297932677456E+08, -3.614216385547405E+07,
2459762.500000000, A.D. 2022-Jul-02 00:00:00.0000, -2.164493783386817E+08, 4.349678090386344E+08, -3.477068733830446E+07,
2459769.500000000, A.D. 2022-Jul-09 00:00:00.0000, -2.261897179779792E+08, 4.303231124616959E+08, -3.338460248734742E+07,
2459776.500000000, A.D. 2022-Jul-16 00:00:00.0000, -2.358352314864822E+08, 4.254978763052485E+08, -3.198450942848155E+07,
2459783.500000000, A.D. 2022-Jul-23 00:00:00.0000, -2.453820164121585E+08, 4.204943877380332E+08, -3.057101579337634E+07,
2459790.500000000, A.D. 2022-Jul-30 00:00:00.0000, -2.548262482157756E+08, 4.153150450456874E+08, -2.914473580887645E+07,
2459797.500000000, A.D. 2022-Aug-06 00:00:00.0000, -2.641641844494767E+08, 4.099623526239262E+08, -2.770628968328615E+07,
2459804.500000000, A.D. 2022-Aug-13 00:00:00.0000, -2.733921676187143E+08, 4.044389170147558E+08, -2.625630299109282E+07,
2459811.500000000, A.D. 2022-Aug-20 00:00:00.0000, -2.825066282881742E+08, 3.987474434962993E+08, -2.479540595564440E+07,
2459818.500000000, A.D. 2022-Aug-27 00:00:00.0000, -2.915040883543828E+08, 3.928907325127298E+08, -2.332423269734731E+07,
2459825.500000000, A.D. 2022-Sep-03 00:00:00.0000, -3.003811642288477E+08, 3.868716758462269E+08, -2.184342048094687E+07,
2459832.500000000, A.D. 2022-Sep-10 00:00:00.0000, -3.091345698346932E+08, 3.806932525671674E+08, -2.035360896997727E+07,
2459839.500000000, A.D. 2022-Sep-17 00:00:00.0000, -3.177611193820938E+08, 3.743585247731549E+08, -1.885543949307398E+07,
2459846.500000000, A.D. 2022-Sep-24 00:00:00.0000, -3.262577298586911E+08, 3.678706330788876E+08, -1.734955433385324E+07,
2459853.500000000, A.D. 2022-Oct-01 00:00:00.0000, -3.346214229932131E+08, 3.612327918484145E+08, -1.583659607037082E+07,
2459860.500000000, A.D. 2022-Oct-08 00:00:00.0000, -3.428493262842299E+08, 3.544482847064976E+08, -1.431720696110487E+07,
2459867.500000000, A.D. 2022-Oct-15 00:00:00.0000, -3.509386740260869E+08, 3.475204615434690E+08, -1.279202819626194E+07,
2459874.500000000, A.D. 2022-Oct-22 00:00:00.0000, -3.588868105142904E+08, 3.404527353455805E+08, -1.126169895413272E+07,
2459881.500000000, A.D. 2022-Oct-29 00:00:00.0000, -3.666911929318429E+08, 3.332485762719313E+08, -9.726855705331191E+06,
2459888.500000000, A.D. 2022-Nov-05 00:00:00.0000, -3.743493918175497E+08, 3.259115057307925E+08, -8.188131734876692E+06,
2459895.500000000, A.D. 2022-Nov-12 00:00:00.0000, -3.818590910848345E+08, 3.184450917350126E+08, -6.646156599971861E+06,
2459902.500000000, A.D. 2022-Nov-19 00:00:00.0000, -3.892180883145303E+08, 3.108529445958318E+08, -5.101555537026018E+06,
2459909.500000000, A.D. 2022-Nov-26 00:00:00.0000, -3.964242950633539E+08, 3.031387125701290E+08, -3.554948875677779E+06,
2459916.500000000, A.D. 2022-Dec-03 00:00:00.0000, -4.034757370267812E+08, 2.953060774609681E+08, -2.006951477017730E+06,
2459923.500000000, A.D. 2022-Dec-10 00:00:00.0000, -4.103705540164608E+08, 2.873587502010262E+08, -4.581721995547116E+05,
2459930.500000000, A.D. 2022-Dec-17 00:00:00.0000, -4.171069997338123E+08, 2.793004664043353E+08, 1.090786602011740E+06,
2459937.500000000, A.D. 2022-Dec-24 00:00:00.0000, -4.236834412373310E+08, 2.711349818303810E+08, 2.639329529193416E+06,
2459944.500000000, A.D. 2022-Dec-31 00:00:00.0000, -4.300983577532920E+08, 2.628660678772582E+08, 4.186868518815249E+06,
2459951.500000000, A.D. 2023-Jan-07 00:00:00.0000, -4.363503387149823E+08, 2.544975080746569E+08, 5.732823215875655E+06,
2459958.500000000, A.D. 2023-Jan-14 00:00:00.0000, -4.424380830064056E+08, 2.460330960813974E+08, 7.276621560929567E+06,
2459965.500000000, A.D. 2023-Jan-21 00:00:00.0000, -4.483604000646359E+08, 2.374766320231473E+08, 8.817700391705036E+06,
2459972.500000000, A.D. 2023-Jan-28 00:00:00.0000, -4.541162091804344E+08, 2.288319169820816E+08, 1.035550570665430E+07,
2459979.500000000, A.D. 2023-Feb-04 00:00:00.0000, -4.597045372133359E+08, 2.201027486710184E+08, 1.188949285722862E+07,
2459986.500000000, A.D. 2023-Feb-11 00:00:00.0000, -4.651245165262247E+08, 2.112929181032170E+08, 1.341912681788547E+07,
2459993.500000000, A.D. 2023-Feb-18 00:00:00.0000, -4.703753832122762E+08, 2.024062064399208E+08, 1.494388247262712E+07,
2460000.500000000, A.D. 2023-Feb-25 00:00:00.0000, -4.754564753601373E+08, 1.934463818581872E+08, 1.646324488118204E+07,
2460007.500000000, A.D. 2023-Mar-04 00:00:00.0000, -4.803672312636281E+08, 1.844171964609969E+08, 1.797670951751857E+07,
2460014.500000000, A.D. 2023-Mar-11 00:00:00.0000, -4.851071875560144E+08, 1.753223832325172E+08, 1.948378247871127E+07,
2460021.500000000, A.D. 2023-Mar-18 00:00:00.0000, -4.896759772306674E+08, 1.661656529908003E+08, 2.098398065648985E+07,
2460028.500000000, A.D. 2023-Mar-25 00:00:00.0000, -4.940733273537846E+08, 1.569506912920013E+08, 2.247683184974780E+07,
2460035.500000000, A.D. 2023-Apr-01 00:00:00.0000, -4.982990560535674E+08, 1.476811556803461E+08, 2.396187481208444E+07,
2460042.500000000, A.D. 2023-Apr-08 00:00:00.0000, -5.023530694101406E+08, 1.383606745091154E+08, 2.543865939183947E+07,
2460049.500000000, A.D. 2023-Apr-15 00:00:00.0000, -5.062353605926814E+08, 1.289928462265264E+08, 2.690674688951061E+07,
2460056.500000000, A.D. 2023-Apr-22 00:00:00.0000, -5.099460094437630E+08, 1.195812360751706E+08, 2.836571021817800E+07,
2460063.500000000, A.D. 2023-Apr-29 00:00:00.0000, -5.134851797825829E+08, 1.101293724580096E+08, 2.981513380112968E+07,
2460070.500000000, A.D. 2023-May-06 00:00:00.0000, -5.168531161931622E+08, 1.006407447504282E+08, 3.125461351447735E+07,
2460077.500000000, A.D. 2023-May-13 00:00:00.0000, -5.200501412810376E+08, 9.111880166267431E+07, 3.268375669199279E+07,
2460084.500000000, A.D. 2023-May-20 00:00:00.0000, -5.230766531707270E+08, 8.156694965944493E+07, 3.410218213116506E+07,
2460091.500000000, A.D. 2023-May-27 00:00:00.0000, -5.259331230563177E+08, 7.198855140433106E+07, 3.550952008089058E+07,
2460098.500000000, A.D. 2023-Jun-03 00:00:00.0000, -5.286200927535992E+08, 6.238692425161715E+07, 3.690541220818280E+07,
2460105.500000000, A.D. 2023-Jun-10 00:00:00.0000, -5.311381722363610E+08, 5.276533876812338E+07, 3.828951154117373E+07,
2460112.500000000, A.D. 2023-Jun-17 00:00:00.0000, -5.334880370741863E+08, 4.312701722173888E+07, 3.966148237596098E+07,
2460119.500000000, A.D. 2023-Jun-24 00:00:00.0000, -5.356704254575015E+08, 3.347513208924112E+07, 4.102100012315674E+07,
2460126.500000000, A.D. 2023-Jul-01 00:00:00.0000, -5.376861345615652E+08, 2.381280540837078E+07, 4.236775113925150E+07,
2460133.500000000, A.D. 2023-Jul-08 00:00:00.0000, -5.395360179276055E+08, 1.414310979259661E+07, 4.370143276415575E+07,
2460140.500000000, A.D. 2023-Jul-15 00:00:00.0000, -5.412209851424154E+08, 4.469068274863912E+06, 4.502175345147748E+07,
2460147.500000000, A.D. 2023-Jul-22 00:00:00.0000, -5.427420002992420E+08, -5.206348057417467E+06, 4.632843258480473E+07,
$$EOE